[{"OBJECT_NAME":"KNACKSAT-2","OBJECT_ID":"1998-067XZ","EPOCH":"2026-03-09T06:38:38.824800","MEAN_MOTION":15.51788436,"ECCENTRICITY":0.00093919,"INCLINATION":51.6309,"RA_OF_ASC_NODE":73.9008,"ARG_OF_PERICENTER":184.4289,"MEAN_ANOMALY":175.6619,"EPHEMERIS_TYPE":0,"CLASSIFICATION_TYPE":"U","NORAD_CAT_ID":67683,"ELEMENT_SET_NO":999,"REV_AT_EPOCH":472,"BSTAR":0.00068223388,"MEAN_MOTION_DOT":0.00041312,"MEAN_MOTION_DDOT":0},{"OBJECT_NAME":"USA 16","OBJECT_ID":"1986-014E","EPOCH":"2026-03-09T21:59:51.870912","MEAN_MOTION":13.71100053,"ECCENTRICITY":0.08024664,"INCLINATION":63.3011,"RA_OF_ASC_NODE":27.1897,"ARG_OF_PERICENTER":114.4024,"MEAN_ANOMALY":254.2869,"EPHEMERIS_TYPE":0,"CLASSIFICATION_TYPE":"U","NORAD_CAT_ID":16624,"ELEMENT_SET_NO":999,"REV_AT_EPOCH":33533,"BSTAR":0.00044783202,"MEAN_MOTION_DOT":4.668e-5,"MEAN_MOTION_DDOT":0}]
